NORAD_CAT_ID,OBJECT_NAME,OBJECT_TYPE,EPOCH,MEAN_MOTION,ECCENTRICITY,INCLINATION,RA_OF_ASC_NODE,ARG_OF_PERICENTER,MEAN_ANOMALY,BSTAR,MEAN_MOTION_DOT,MEAN_MOTION_DDOT,TLE_LINE0,TLE_LINE1,TLE_LINE2,SEMIMAJOR_AXIS,PERIOD,APOGEE,PERIGEE,DECAYED
54092.0,STARLINK-5190,PAYLOAD,2024-03-05 19:44:22,15.16564803,0.0002495,53.2166,25.1997,91.9494,268.1787,0.0021214,0.00041833,0.0,0 STARLINK-5190,1 54092U 22136AT  24065.82247817  .00041833  00000-0  21214-2 0  9991,2 54092  53.2166  25.1997 0002495  91.9494 268.1787 15.16564803 76713,6894.369,94.951,517.954,514.514,0.0
54092.0,STARLINK-5190,PAYLOAD,2024-03-06 03:38:51,15.16596134,0.0002519,53.2167,23.703,91.9791,268.1493,0.0021209,0.00041861,0.0,0 STARLINK-5190,1 54092U 22136AT  24066.15198536  .00041861  00000-0  21209-2 0  9996,2 54092  53.2167  23.7030 0002519  91.9791 268.1493 15.16596134 76292,6894.274,94.949,517.876,514.402,0.0
54092.0,STARLINK-5190,PAYLOAD,2024-03-07 03:22:15,15.16698847,0.0002487,53.2175,19.2118,94.9914,265.1365,0.0022439,0.00044453,0.0,0 STARLINK-5190,1 54092U 22136AT  24067.14046103  .00044453  00000-0  22439-2 0  9994,2 54092  53.2175  19.2118 0002487  94.9914 265.1365 15.16698847 76910,6893.963,94.943,517.542,514.113,0.0
54092.0,STARLINK-5190,PAYLOAD,2024-03-07 06:32:02,15.16716663,0.00025,53.2175,18.6128,96.4584,263.6697,0.002492,0.00049463,0.0,0 STARLINK-5190,1 54092U 22136AT  24067.27225259  .00049463  00000-0  24920-2 0  9992,2 54092  53.2175  18.6128 0002500  96.4584 263.6697 15.16716663 76468,6893.909,94.942,517.497,514.05,0.0
54092.0,STARLINK-5190,PAYLOAD,2024-03-08 06:15:20,15.1681191,0.0002499,53.2182,14.121,103.3903,256.7371,0.0024854,0.00049466,0.0,0 STARLINK-5190,1 54092U 22136AT  24068.26065639  .00049466  00000-0  24854-2 0  9995,2 54092  53.2182  14.1210 0002499 103.3903 256.7371 15.16811910 76619,6893.62,94.936,517.208,513.763,0.0
54092.0,STARLINK-5190,PAYLOAD,2024-03-09 02:48:48,15.16889185,0.0002403,53.2181,10.2283,106.2568,253.8692,0.0021491,0.00042785,0.0,0 STARLINK-5190,1 54092U 22136AT  24069.11722328  .00042785  00000-0  21491-2 0  9996,2 54092  53.2181  10.2283 0002403 106.2568 253.8692 15.16889185 77219,6893.386,94.931,516.908,513.595,0.0
54092.0,STARLINK-5190,PAYLOAD,2024-03-10 02:31:55,15.17010924,0.0002549,53.2192,5.7354,112.6118,247.5147,0.002567,0.00051407,0.0,0 STARLINK-5190,1 54092U 22136AT  24070.10549966  .00051407  00000-0  25670-2 0  9996,2 54092  53.2192   5.7354 0002549 112.6118 247.5147 15.17010924 77361,6893.017,94.924,516.639,513.125,0.0
54092.0,STARLINK-5190,PAYLOAD,2024-03-10 05:41:39,15.1702713,0.0002581,53.2193,5.1363,113.8722,246.2545,0.0024254,0.00048557,0.0,0 STARLINK-5190,1 54092U 22136AT  24070.23726432  .00048557  00000-0  24254-2 0  9994,2 54092  53.2193   5.1363 0002581 113.8722 246.2545 15.17027130 76911,6892.968,94.922,516.612,513.054,0.0
54092.0,STARLINK-5190,PAYLOAD,2024-03-11 02:14:56,15.17123139,0.000255,53.2194,1.2436,119.2641,240.861,0.0025628,0.00051489,0.0,0 STARLINK-5190,1 54092U 22136AT  24071.09370425  .00051489  00000-0  25628-2 0  9990,2 54092  53.2194   1.2436 0002550 119.2641 240.8610 15.17123139 77512,6892.677,94.916,516.3,512.785,0.0
54092.0,STARLINK-5190,PAYLOAD,2024-03-11 11:44:06,15.1716683,0.0002519,53.2193,359.4466,120.6602,239.4642,0.0025297,0.00050879,0.0,0 STARLINK-5190,1 54092U 22136AT  24071.48896593  .00050879  00000-0  25297-2 0  9996,2 54092  53.2193 359.4466 0002519 120.6602 239.4642 15.17166830 77109,6892.545,94.914,516.146,512.674,0.0
54092.0,STARLINK-5190,PAYLOAD,2024-03-12 05:07:33,15.17239524,0.0002526,53.2193,356.1515,126.4512,233.6716,0.0022907,0.00046108,0.0,0 STARLINK-5190,1 54092U 22136AT  24072.21358527  .00046108  00000-0  22907-2 0  9993,2 54092  53.2193 356.1515 0002526 126.4512 233.6716 15.17239524 77682,6892.325,94.909,515.931,512.449,0.0
54092.0,STARLINK-5190,PAYLOAD,2024-03-12 19:21:15,15.17300208,0.0002457,53.2189,353.4563,129.468,230.6534,0.0023616,0.00047638,0.0,0 STARLINK-5190,1 54092U 22136AT  24072.80642916  .00047638  00000-0  23616-2 0  9993,2 54092  53.2189 353.4563 0002457 129.4680 230.6534 15.17300208 77304,6892.141,94.905,515.7,512.313,0.0
54092.0,STARLINK-5190,PAYLOAD,2024-03-13 11:09:46,15.1736696,0.0002505,53.2188,350.4604,133.4898,226.6306,0.0022536,0.00045519,0.0,0 STARLINK-5190,1 54092U 22136AT  24073.46511642  .00045519  00000-0  22536-2 0  9993,2 54092  53.2188 350.4604 0002505 133.4898 226.6306 15.17366960 77877,6891.939,94.901,515.53,512.078,0.0
54092.0,STARLINK-5190,PAYLOAD,2024-03-13 22:13:41,15.17418657,0.0002514,53.2184,348.3627,137.3915,222.7277,0.0024655,0.00049934,0.0,0 STARLINK-5190,1 54092U 22136AT  24073.92617987  .00049934  00000-0  24655-2 0  9992,2 54092  53.2184 348.3627 0002514 137.3915 222.7277 15.17418657 77478,6891.782,94.898,515.38,511.915,0.0
54092.0,STARLINK-5190,PAYLOAD,2024-03-14 04:33:04,15.17447926,0.0002591,53.2184,347.1644,139.8155,220.3033,0.0022132,0.00044798,0.0,0 STARLINK-5190,1 54092U 22136AT  24074.18963760  .00044798  00000-0  22132-2 0  9995,2 54092  53.2184 347.1644 0002591 139.8155 220.3033 15.17447926 77983,6891.694,94.896,515.344,511.773,0.0
54092.0,STARLINK-5190,PAYLOAD,2024-03-14 21:56:20,15.175216,0.0002562,53.2175,343.8686,144.4814,215.6352,0.0022541,0.00045734,0.0,0 STARLINK-5190,1 54092U 22136AT  24074.91412205  .00045734  00000-0  22541-2 0  9994,2 54092  53.2175 343.8686 0002562 144.4814 215.6352 15.17521600 77628,6891.471,94.892,515.101,511.57,0.0
54092.0,STARLINK-5190,PAYLOAD,2024-03-14 23:31:10,15.1752805,0.0002573,53.2176,343.5688,145.0246,215.092,0.0022974,0.00046633,0.0,0 STARLINK-5190,1 54092U 22136AT  24074.97998250  .00046633  00000-0  22974-2 0  9998,2 54092  53.2176 343.5688 0002573 145.0246 215.0920 15.17528050 78101,6891.451,94.891,515.089,511.543,0.0
54092.0,STARLINK-5190,PAYLOAD,2024-03-15 16:54:22,15.17598035,0.0002446,53.2168,340.2729,148.1238,211.9907,0.0023477,0.00047765,0.0,0 STARLINK-5190,1 54092U 22136AT  24075.70442927  .00047765  00000-0  23477-2 0  9991,2 54092  53.2168 340.2729 0002446 148.1238 211.9907 15.17598035 77745,6891.239,94.887,514.79,511.419,0.0
54092.0,STARLINK-5190,PAYLOAD,2024-03-15 23:13:42,15.17623158,0.0002517,53.217,339.0739,150.427,209.6869,0.0020881,0.00042448,0.0,0 STARLINK-5190,1 54092U 22136AT  24075.96785576  .00042448  00000-0  20881-2 0  9998,2 54092  53.2170 339.0739 0002517 150.4270 209.6869 15.17623158 77786,6891.163,94.885,514.763,511.294,0.0
54092.0,STARLINK-5190,PAYLOAD,2024-03-16 16:36:51,15.17675175,0.0002398,53.2162,335.7791,154.1114,206.0002,0.0019216,0.00039078,0.0,0 STARLINK-5190,1 54092U 22136AT  24076.69226264  .00039078  00000-0  19216-2 0  9998,2 54092  53.2162 335.7791 0002398 154.1114 206.0002 15.17675175 78364,6891.006,94.882,514.523,511.218,0.0
54092.0,STARLINK-5190,PAYLOAD,2024-03-16 22:56:10,15.17674657,0.0003148,53.2159,334.5765,163.9979,196.1117,0.0011563,0.00023338,0.0,0 STARLINK-5190,1 54092U 22136AT  24076.95567872  .00023338  00000-0  11563-2 0  9999,2 54092  53.2159 334.5765 0003148 163.9979 196.1117 15.17674657 77931,6891.007,94.882,515.042,510.703,0.0
54092.0,STARLINK-5190,PAYLOAD,2024-03-17 02:05:50,15.17679855,0.0002871,53.2154,333.9797,164.2922,195.8163,0.0013448,0.00027213,0.0,0 STARLINK-5190,1 54092U 22136AT  24077.08738855  .00027213  00000-0  13448-2 0  9995,2 54092  53.2154 333.9797 0002871 164.2922 195.8163 15.17679855 78425,6890.992,94.882,514.835,510.878,0.0
54092.0,STARLINK-5190,PAYLOAD,2024-03-17 22:38:36,15.17720577,0.0002823,53.2152,330.0822,166.7712,193.3358,0.0011849,0.00023957,0.0,0 STARLINK-5190,1 54092U 22136AT  24077.94347620  .00023957  00000-0  11849-2 0  9990,2 54092  53.2152 330.0822 0002823 166.7712 193.3358 15.17720577 78080,6890.868,94.879,514.679,510.788,0.0
54092.0,STARLINK-5190,PAYLOAD,2024-03-18 01:48:15,15.17729119,0.0002847,53.2155,329.483,166.1953,193.9121,0.001216,0.00024602,0.0,0 STARLINK-5190,1 54092U 22136AT  24078.07517967  .00024602  00000-0  12160-2 0  9993,2 54092  53.2155 329.4830 0002847 166.1953 193.9121 15.17729119 78109,6890.843,94.879,514.669,510.746,0.0
54092.0,STARLINK-5190,PAYLOAD,2024-03-18 20:46:10,15.1774182,0.000334,53.2154,325.8881,168.776,191.3311,0.00077899,0.00015634,0.0,0 STARLINK-5190,1 54092U 22136AT  24078.86539925  .00015634  00000-0  77899-3 0  9994,2 54092  53.2154 325.8881 0003340 168.7760 191.3311 15.17741820 78697,6890.804,94.878,514.971,510.368,0.0
54092.0,STARLINK-5190,PAYLOAD,2024-03-18 22:21:00,15.17743578,0.0002778,53.2156,325.5876,165.2593,194.8485,0.00069512,0.00013914,0.0,0 STARLINK-5190,1 54092U 22136AT  24078.93125162  .00013914  00000-0  69512-3 0  9998,2 54092  53.2156 325.5876 0002778 165.2593 194.8485 15.17743578 78232,6890.799,94.878,514.578,510.75,0.0
54092.0,STARLINK-5190,PAYLOAD,2024-03-19 01:30:39,15.17745454,0.0002772,53.2157,324.9885,165.7518,194.3556,0.00066928,0.00013384,0.0,0 STARLINK-5190,1 54092U 22136AT  24079.06295417  .00013384  00000-0  66928-3 0  9993,2 54092  53.2157 324.9885 0002772 165.7518 194.3556 15.17745454 78253,6890.793,94.878,514.568,510.748,0.0
54092.0,STARLINK-5190,PAYLOAD,2024-03-19 22:03:22,15.17758271,0.0002693,53.2155,321.0929,164.7691,195.3387,0.00056595,0.0001127,0.0,0 STARLINK-5190,1 54092U 22136AT  24079.91901616  .00011270  00000-0  56595-3 0  9993,2 54092  53.2155 321.0929 0002693 164.7691 195.3387 15.17758271 78851,6890.754,94.877,514.475,510.764,0.0
54092.0,STARLINK-5190,PAYLOAD,2024-03-20 01:13:01,15.17769035,0.0002784,53.2154,320.4925,166.3785,193.7287,0.00078786,0.00015828,0.0,0 STARLINK-5190,1 54092U 22136AT  24080.05071474  .00015828  00000-0  78786-3 0  9999,2 54092  53.2154 320.4925 0002784 166.3785 193.7287 15.17769035 78875,6890.722,94.876,514.505,510.668,0.0
54092.0,STARLINK-5190,PAYLOAD,2024-03-20 20:10:52,15.17834577,0.0002766,53.2149,316.8999,173.9275,186.1755,0.0015361,0.00031286,0.0,0 STARLINK-5190,1 54092U 22136AT  24080.84088967  .00031286  00000-0  15361-2 0  9996,2 54092  53.2149 316.8999 0002766 173.9275 186.1755 15.17834577 78990,6890.523,94.872,514.294,510.483,0.0
